IRIDIUM 119             
1 42959U 17061E   25101.81771625  .00000281  00000+0  93189-4 0  9994
2 42959  86.4031 205.4773 0002020  91.3435 268.7992 14.34218977392980
IRIDIUM 107             
1 42960U 17061F   25101.83674262  .00000337  00000+0  11337-3 0  9993
2 42960  86.4033 205.4884 0001658  97.7815 262.3569 14.34219444392996
IRIDIUM 132             
1 42961U 17061G   25101.70354994  .00000143  00000+0  44122-4 0  9991
2 42961  86.4034 205.5265 0001951  96.7641 263.3776 14.34218273392972
IRIDIUM 136             
1 42962U 17061H   25101.80503521  .00000508  00000+0  17420-3 0  9990
2 42962  86.4033 205.4888 0001987  91.0959 269.0465 14.34215078393004
IRIDIUM 139             
1 42963U 17061J   25101.88114149  .00000478  00000+0  16349-3 0  9998
2 42963  86.4036 205.5118 0001958  97.6453 262.4965 14.34218931393029
IRIDIUM 125             
1 42964U 17061K   25101.72891901  .00000346  00000+0  11652-3 0  9996
2 42964  86.4038 205.6284 0001850  83.5259 276.6147 14.34219569393012
IRIDIUM 135             
1 43070U 17083A   25101.84258152 -.00000036  00000+0 -20063-4 0  9992
2 43070  86.3975 142.3513 0002414  96.0991 264.0480 14.34219423382323
IRIDIUM 138             
1 43071U 17083B   25101.65864743 -.00000054  00000+0 -26205-4 0  9995
2 43071  86.3964 142.1077 0002401  80.8118 279.3350 14.34218656382280
